IRIDIUM 7 [-]           
1 24793U 97020B   24022.94876195  .00000604  00000+0  20529-3 0  9992
2 24793  86.3946  31.0426 0002250  83.5328 276.6124 14.35048742398553
IRIDIUM 5 [-]           
1 24795U 97020D   24022.83881247  .00004713  00000+0  46302-3 0  9998
2 24795  86.3953 317.7109 0126266 160.4284 200.1854 14.86028045409325
IRIDIUM 4 [-]           
1 24796U 97020E   24022.56136540  .00000716  00000+0  24012-3 0  9991
2 24796  86.3945  28.4227 0002366  88.8461 271.3007 14.35959393399026
IRIDIUM 914 [-]         
1 24836U 97030A   24022.56632996  .00000807  00000+0  25113-3 0  9997
2 24836  86.3914  38.5209 0004062  98.5355 261.6305 14.39793382533485
IRIDIUM 16 [-]          
1 24841U 97030F   24022.60546522  .00000725  00000+0  23504-3 0  9998
2 24841  86.4002  60.1141 0001291  24.7937 335.3322 14.37679241393470
IRIDIUM 911 [-]         
1 24842U 97030G   24022.64305967  .00000930  00000+0  25394-3 0  9996
2 24842  86.4428  59.3476 0014585  11.4381 348.7150 14.46251029401118
IRIDIUM 17 [-]          
1 24870U 97034B   24022.69092645  .00000751  00000+0  24816-3 0  9991
2 24870  86.3939  89.7361 0000937 141.2191 218.9074 14.36776939390113
IRIDIUM 920 [-]         
1 24871U 97034C   24022.66102461  .00000719  00000+0  21985-3 0  9995
2 24871  86.3942  70.1561 0010536 339.0835  20.9932 14.40498022392915
